[{"OBJECT_NAME":"STARLINK-5862","OBJECT_ID":"2023-037G","EPOCH":"2026-03-09T22:41:26.758176","MEAN_MOTION":14.98328519,"ECCENTRICITY":0.00027459,"INCLINATION":69.9976,"RA_OF_ASC_NODE":284.0081,"ARG_OF_PERICENTER":270.8267,"MEAN_ANOMALY":89.2578,"EPHEMERIS_TYPE":0,"CLASSIFICATION_TYPE":"U","NORAD_CAT_ID":55920,"ELEMENT_SET_NO":999,"REV_AT_EPOCH":16401,"BSTAR":7.8461693e-5,"MEAN_MOTION_DOT":8.43e-6,"MEAN_MOTION_DDOT":0},{"OBJECT_NAME":"CZ-4B DEB","OBJECT_ID":"1999-057BZ","EPOCH":"2026-03-09T10:47:31.286688","MEAN_MOTION":14.9004764,"ECCENTRICITY":0.00449145,"INCLINATION":98.5631,"RA_OF_ASC_NODE":129.7133,"ARG_OF_PERICENTER":286.2462,"MEAN_ANOMALY":73.3815,"EPHEMERIS_TYPE":0,"CLASSIFICATION_TYPE":"U","NORAD_CAT_ID":26187,"ELEMENT_SET_NO":999,"REV_AT_EPOCH":39955,"BSTAR":0.00034061798,"MEAN_MOTION_DOT":3.283e-5,"MEAN_MOTION_DDOT":0}]
